{
  "type": "FeatureCollection",
  "features": [
    {
      "type": "Feature",
      "properties": {
        "norad_id": 33724,
        "name": "FENGYUN 1C DEB",
        "group": "fengyun-1c-debris",
        "lat": -76.4669613209348,
        "lon": 146.69263790381044,
        "alt_km": 838.3956573668002,
        "timestamp": "2025-12-21T14:40:48.203843+00:00",
        "meta_object_name": "FENGYUN 1C DEB",
        "meta_object_id": "1999-025DHM",
        "meta_epoch": "2025-12-21T06:46:47.413344",
        "meta_mean_motion": 14.19661096,
        "meta_eccentricity": 0.00278339,
        "meta_inclination": 98.6032,
        "meta_ra_of_asc_node": 5.348,
        "meta_arg_of_pericenter": 157.0646,
        "meta_mean_anomaly": 220.7249,
        "meta_ephemeris_type": 0,
        "meta_classification_type": "U",
        "meta_norad_cat_id": 33724,
        "meta_element_set_no": 999,
        "meta_rev_at_epoch": 94083,
        "meta_bstar": 0.00035809922,
        "meta_mean_motion_dot": 7.17e-06,
        "meta_mean_motion_ddot": 0,
        "tle_line1": "1 33724U 99025DHM 25355.28249321  .00000717  00000+0  35810-3 0  9999",
        "tle_line2": "2 33724  98.6032   5.3480 0027833 157.0646 220.7249 14.19661096940834"
      },
      "geometry": {
        "type": "Point",
        "coordinates": [
          146.69263790381044,
          -76.4669613209348
        ]
      }
    },
    {
      "type": "Feature",
      "properties": {
        "norad_id": 33726,
        "name": "FENGYUN 1C DEB",
        "group": "fengyun-1c-debris",
        "lat": 77.71610612593115,
        "lon": 75.25209777155614,
        "alt_km": 800.115631469348,
        "timestamp": "2025-12-21T14:40:48.203853+00:00",
        "meta_object_name": "FENGYUN 1C DEB",
        "meta_object_id": "1999-025DHP",
        "meta_epoch": "2025-12-18T03:41:23.154144",
        "meta_mean_motion": 14.1431231,
        "meta_eccentricity": 0.01924925,
        "meta_inclination": 98.6391,
        "meta_ra_of_asc_node": 116.1898,
        "meta_arg_of_pericenter": 15.6036,
        "meta_mean_anomaly": 107.2674,
        "meta_ephemeris_type": 0,
        "meta_classification_type": "U",
        "meta_norad_cat_id": 33726,
        "meta_element_set_no": 999,
        "meta_rev_at_epoch": 92008,
        "meta_bstar": 0.00023538206,
        "meta_mean_motion_dot": 4.94e-06,
        "meta_mean_motion_ddot": 0,
        "tle_line1": "1 33726U 99025DHP 25352.15374021  .00000494  00000+0  23538-3 0  9996",
        "tle_line2": "2 33726  98.6391 116.1898 0192492  15.6036 107.2674 14.14312310920087"
      },
      "geometry": {
        "type": "Point",
        "coordinates": [
          75.25209777155614,
          77.71610612593115
        ]
      }
    },
    {
      "type": "Feature",
      "properties": {
        "norad_id": 33728,
        "name": "FENGYUN 1C DEB",
        "group": "fengyun-1c-debris",
        "lat": 2.7439446841478596,
        "lon": 52.303607156613516,
        "alt_km": 694.7912432781613,
        "timestamp": "2025-12-21T14:40:48.203863+00:00",
        "meta_object_name": "FENGYUN 1C DEB",
        "meta_object_id": "1999-025DHR",
        "meta_epoch": "2025-12-19T03:08:31.669440",
        "meta_mean_motion": 14.92712258,
        "meta_eccentricity": 0.01477777,
        "meta_inclination": 98.9792,
        "meta_ra_of_asc_node": 49.9098,
        "meta_arg_of_pericenter": 194.4676,
        "meta_mean_anomaly": 165.2288,
        "meta_ephemeris_type": 0,
        "meta_classification_type": "U",
        "meta_norad_cat_id": 33728,
        "meta_element_set_no": 999,
        "meta_rev_at_epoch": 98395,
        "meta_bstar": 0.00039692023,
        "meta_mean_motion_dot": 4.984e-05,
        "meta_mean_motion_ddot": 0,
        "tle_line1": "1 33728U 99025DHR 25353.13092210  .00004984  00000+0  39692-3 0  9990",
        "tle_line2": "2 33728  98.9792  49.9098 0147777 194.4676 165.2288 14.92712258983955"
      },
      "geometry": {
        "type": "Point",
        "coordinates": [
          52.303607156613516,
          2.7439446841478596
        ]
      }
    },
    {
      "type": "Feature",
      "properties": {
        "norad_id": 33730,
        "name": "FENGYUN 1C DEB",
        "group": "fengyun-1c-debris",
        "lat": 63.131773013027605,
        "lon": 35.882365014394075,
        "alt_km": 670.9159413371935,
        "timestamp": "2025-12-21T14:40:48.203873+00:00",
        "meta_object_name": "FENGYUN 1C DEB",
        "meta_object_id": "1999-025DHT",
        "meta_epoch": "2025-12-17T10:18:00.572256",
        "meta_mean_motion": 14.63540792,
        "meta_eccentricity": 0.00393712,
        "meta_inclination": 99.0546,
        "meta_ra_of_asc_node": 49.6389,
        "meta_arg_of_pericenter": 356.5197,
        "meta_mean_anomaly": 3.5723,
        "meta_ephemeris_type": 0,
        "meta_classification_type": "U",
        "meta_norad_cat_id": 33730,
        "meta_element_set_no": 999,
        "meta_rev_at_epoch": 95748,
        "meta_bstar": 0.0011805307,
        "meta_mean_motion_dot": 6.139e-05,
        "meta_mean_motion_ddot": 0,
        "tle_line1": "1 33730U 99025DHT 25351.42917329  .00006139  00000+0  11805-2 0  9999",
        "tle_line2": "2 33730  99.0546  49.6389 0039371 356.5197   3.5723 14.63540792957483"
      },
      "geometry": {
        "type": "Point",
        "coordinates": [
          35.882365014394075,
          63.131773013027605
        ]
      }
    },
    {
      "type": "Feature",
      "properties": {
        "norad_id": 33731,
        "name": "FENGYUN 1C DEB",
        "group": "fengyun-1c-debris",
        "lat": -78.73659682540105,
        "lon": 74.76829460230772,
        "alt_km": 957.5013958877189,
        "timestamp": "2025-12-21T14:40:48.203891+00:00",
        "meta_object_name": "FENGYUN 1C DEB",
        "meta_object_id": "1999-025DHU",
        "meta_epoch": "2025-12-14T07:32:51.114336",
        "meta_mean_motion": 13.95346461,
        "meta_eccentricity": 0.01291818,
        "meta_inclination": 99.4471,
        "meta_ra_of_asc_node": 10.5718,
        "meta_arg_of_pericenter": 51.9301,
        "meta_mean_anomaly": 309.3431,
        "meta_ephemeris_type": 0,
        "meta_classification_type": "U",
        "meta_norad_cat_id": 33731,
        "meta_element_set_no": 999,
        "meta_rev_at_epoch": 90471,
        "meta_bstar": 0.0013457717,
        "meta_mean_motion_dot": 1.908e-05,
        "meta_mean_motion_ddot": 0,
        "tle_line1": "1 33731U 99025DHU 25348.31448049  .00001908  00000+0  13458-2 0  9997",
        "tle_line2": "2 33731  99.4471  10.5718 0129181  51.9301 309.3431 13.95346461904712"
      },
      "geometry": {
        "type": "Point",
        "coordinates": [
          74.76829460230772,
          -78.73659682540105
        ]
      }
    },
    {
      "type": "Feature",
      "properties": {
        "norad_id": 33733,
        "name": "FENGYUN 1C DEB",
        "group": "fengyun-1c-debris",
        "lat": -43.8448216254722,
        "lon": 90.20425043423108,
        "alt_km": 851.1075897188712,
        "timestamp": "2025-12-21T14:40:48.203902+00:00",
        "meta_object_name": "FENGYUN 1C DEB",
        "meta_object_id": "1999-025DHW",
        "meta_epoch": "2025-12-14T05:17:42.025920",
        "meta_mean_motion": 14.31053637,
        "meta_eccentricity": 0.00804283,
        "meta_inclination": 99.0978,
        "meta_ra_of_asc_node": 73.616,
        "meta_arg_of_pericenter": 166.2685,
        "meta_mean_anomaly": 251.3146,
        "meta_ephemeris_type": 0,
        "meta_classification_type": "U",
        "meta_norad_cat_id": 33733,
        "meta_element_set_no": 999,
        "meta_rev_at_epoch": 90469,
        "meta_bstar": 0.0039221093,
        "meta_mean_motion_dot": 0.00010671,
        "meta_mean_motion_ddot": 0,
        "tle_line1": "1 33733U 99025DHW 25348.22062530  .00010671  00000+0  39221-2 0  9999",
        "tle_line2": "2 33733  99.0978  73.6160 0080428 166.2685 251.3146 14.31053637904695"
      },
      "geometry": {
        "type": "Point",
        "coordinates": [
          90.20425043423108,
          -43.8448216254722
        ]
      }
    },
    {
      "type": "Feature",
      "properties": {
        "norad_id": 33737,
        "name": "FENGYUN 1C DEB",
        "group": "fengyun-1c-debris",
        "lat": -25.17647949034378,
        "lon": -167.25905748593848,
        "alt_km": 866.2690862369291,
        "timestamp": "2025-12-21T14:40:48.203912+00:00",
        "meta_object_name": "FENGYUN 1C DEB",
        "meta_object_id": "1999-025DJA",
        "meta_epoch": "2025-12-21T01:42:05.594112",
        "meta_mean_motion": 14.03029896,
        "meta_eccentricity": 0.01283887,
        "meta_inclination": 98.3387,
        "meta_ra_of_asc_node": 188.292,
        "meta_arg_of_pericenter": 259.478,
        "meta_mean_anomaly": 223.8841,
        "meta_ephemeris_type": 0,
        "meta_classification_type": "U",
        "meta_norad_cat_id": 33737,
        "meta_element_set_no": 999,
        "meta_rev_at_epoch": 88857,
        "meta_bstar": 0.0010358926,
        "meta_mean_motion_dot": 1.691e-05,
        "meta_mean_motion_ddot": 0,
        "tle_line1": "1 33737U 99025DJA 25355.07089808  .00001691  00000+0  10359-2 0  9994",
        "tle_line2": "2 33737  98.3387 188.2920 0128388 259.4780 223.8841 14.03029896888574"
      },
      "geometry": {
        "type": "Point",
        "coordinates": [
          -167.25905748593848,
          -25.17647949034378
        ]
      }
    }
  ]
}